SHIELDS 1               
1 43850U 18104B   22287.15897697  .00005615  00000+0  22679-3 0  9992
2 43850  85.0282 333.4201 0013798 178.1612 181.9685 15.24438188212587
STF-1                   
1 43852U 18104D   22288.14090614  .00019126  00000+0  67500-3 0  9992
2 43852  85.0302 332.6694 0012146 183.8160 176.2995 15.29046008212814
ZACUBE-2                
1 43907U 18111AH  22288.12691644  .00015601  00000+0  54231-3 0  9990
2 43907  97.1705 170.1867 0020009  19.6199 137.4983 15.29619286211570
LUME 1                  
1 43908U 18111AJ  22288.15349925  .00021761  00000+0  68516-3 0  9991
2 43908  97.1713 172.2385 0017874  13.6342 346.5380 15.32782610211714
AOBA VELOX-IV           
1 43940U 19003J   22287.82935301  .00061419  00000+0  13342-2 0  9990
2 43940  97.1155 320.5538 0016591  76.1927 284.1167 15.43999449208501
MOVE-IIB                
1 44398U 19038N   22287.85990450  .00029708  00000+0  13071-2 0  9999
2 44398  97.6416 258.5852 0022667  75.7628 284.6119 15.21581676181177
SONATE                  
1 44400U 19038Q   22287.86475441  .00010478  00000+0  54828-3 0  9992
2 44400  97.6494 257.0676 0024952  81.3101 279.0950 15.15758395181014
LUCKY-7                 
1 44406U 19038W   22286.66200693  .00010662  00000+0  54038-3 0  9998
2 44406  97.6536 256.5140 0024350  83.6353 276.7652 15.16888649180876
BEESAT 9                
1 44412U 19038AC  22287.92092001  .00018515  00000+0  88556-3 0  9994
2 44412  97.6505 258.3023 0021949  82.8112 277.5617 15.18827730180814
JAISAT-1                
1 44419U 19038F   22287.86947681  .00018536  00000+0  87528-3 0  9998
2 44419  97.6505 259.1801 0020805  80.2810 280.0772 15.19293238181173
DUCHIFAT-3              
1 44854U 19089C   22287.88055140  .00007791  00000+0  58955-3 0  9992
2 44854  36.9660 111.9567 0006298 105.5749 254.5644 15.01925338155898
EYESAT-NANO             
1 44877U 19092E   22287.58737780  .00022157  00000+0  88686-3 0  9992
2 44877  97.4637 111.3211 0010128 302.6066  57.4193 15.25036185156505
ORBITAL FACTORY 2 (OF-2)
1 45113U 19071C   22287.90463011  .00060535  00000+0  96412-3 0  9990
2 45113  51.6349 189.0665 0008153 233.8692 126.1544 15.52642700151887
M2 PATHFINDER           
1 45727U 20037E   22287.91766396  .00002907  00000+0  28937-3 0  9994
2 45727  97.7429 101.2793 0012913   5.3700 354.7635 14.92353534124648
NETSAT-4                
1 46504U 20068U   22287.35658863  .00007264  00000+0  52767-3 0  9998
2 46504  97.7281 227.0026 0009703 285.3392  74.6730 15.04130661111912
NETSAT-3                
1 46505U 20068V   22287.57511645  .00007687  00000+0  55886-3 0  9993
2 46505  97.7263 227.1224 0009239 292.2618  67.7610 15.04082934111959
NETSAT-1                
1 46506U 20068W   22287.52962318  .00006784  00000+0  49489-3 0  9995
2 46506  97.7273 226.9935 0008098 313.2619  46.7930 15.04009535111941
NETSAT-2                
1 46507U 20068X   22287.34092060  .00006948  00000+0  50680-3 0  9991
2 46507  97.7279 226.7976 0007865 325.2490  34.8218 15.04004353111863
SAI-1 NANOCONNECT-2     
1 47701U 21015C   22287.45638431  .00024814  00000+0  85141-3 0  9993
2 47701  97.4134   3.9415 0011084  38.5613 321.6418 15.30087657 90399
WILDTRACKCUBE-SIMBA     
1 47941U 21022K   22288.10276336  .00007786  00000+0  50594-3 0  9995
2 47941  97.5165 185.0387 0022761  96.8989 263.4812 15.08073554 86029
BEESAT-6                
1 47957U 21022AB  22288.22017968  .00013579  00000+0  83055-3 0  9994
2 47957  97.5133 185.5032 0021696  96.6156  55.1998 15.10157392 85861
SMOG-1                  
1 47964U 21022AJ  22288.19552853  .00015735  00000+0  92285-3 0  9996
2 47964  97.5155 186.7985 0020114  85.2892 275.0635 15.11672523 84968
MMSATS-1                
1 47976U 98067SJ  22287.94921046  .00054460  00000+0  53429-3 0  9993
2 47976  51.6378  82.4483 0000280 153.4745 348.9704 15.65519787 88930
BCCSAT-1                
1 48041U 21022AK  22287.45741037  .00013170  00000+0  79644-3 0  9990
2 48041  97.5162 185.5391 0017004  86.3301 273.9872 15.10654827 84799
BEESAT-5                
1 48083U 21022AM  22288.19867023  .00016279  00000+0  98490-3 0  9995
2 48083  97.5148 185.5010 0021862  97.6120  61.5713 15.10508949 84998
BEESAT-7                
1 48084U 21022AN  22287.48479814  .00015582  00000+0  94825-3 0  9998
2 48084  97.5121 184.8011 0022383 101.8983  72.5773 15.10295335 84470
BEESAT-8                
1 48085U 21022AP  22288.21966308  .00011408  00000+0  70166-3 0  9995
2 48085  97.5123 185.4986 0020987  95.6779  56.1240 15.10008187 85141
LEDSAT                  
1 49069U 21073D   22287.93595276  .00007751  00000+0  48259-3 0  9998
2 49069  97.5136 358.4555 0025222 243.4918 116.3724 15.09599637 63850
HSU-SAT1                
1 53462U 98067UB  22287.85676996  .00071461  00000+0  10063-2 0  9997
2 53462  51.6375 102.3711 0005984 350.1551   9.9323 15.55965471  9878
FUTABA                  
1 53463U 98067UC  22287.71173307  .00094616  00000+0  12776-2 0  9991
2 53463  51.6376 102.9024 0006079 343.0312  17.0475 15.56973212  9854
TUMNANOSAT              
1 53464U 98067UD  22287.56737992  .00110456  00000+0  14344-2 0  9995
2 53464  51.6371 103.4387 0006160 338.5639  21.5094 15.57943829  9837
